NORAD_CAT_ID,OBJECT_NAME,OBJECT_TYPE,EPOCH,MEAN_MOTION,ECCENTRICITY,INCLINATION,RA_OF_ASC_NODE,ARG_OF_PERICENTER,MEAN_ANOMALY,BSTAR,MEAN_MOTION_DOT,MEAN_MOTION_DDOT,TLE_LINE0,TLE_LINE1,TLE_LINE2,SEMIMAJOR_AXIS,PERIOD,APOGEE,PERIGEE,DECAYED
49750.0,STARLINK-3236,PAYLOAD,2022-11-11 21:03:21,15.08824661,0.0002179,53.2162,198.142,37.095,323.0192,0.00022727,3.329e-05,0.0,0 STARLINK-3236,1 49750U 21115AC  22315.87732987  .00003329  00000-0  22727-3 0  9999,2 49750  53.2162 198.1420 0002179  37.0950 323.0192 15.08824661 53407,6917.927,95.439,541.3,538.285,0.0
49750.0,STARLINK-3236,PAYLOAD,2022-11-12 09:46:26,15.08844413,0.0002193,53.2152,195.7632,36.1326,323.9814,0.00046145,7.064e-05,0.0,0 STARLINK-3236,1 49750U 21115AC  22316.40724707  .00007064  00000-0  46145-3 0  9990,2 49750  53.2152 195.7632 0002193  36.1326 323.9814 15.08844413 53482,6917.8669999999975,95.437,541.249,538.215,0.0
49750.0,STARLINK-3236,PAYLOAD,2022-11-12 20:54:07,15.08858244,0.0002245,53.2147,193.6816,36.4944,323.6201,0.00068254,0.00010597,0.0,0 STARLINK-3236,1 49750U 21115AC  22316.87092330  .00010597  00000-0  68254-3 0  9991,2 49750  53.2147 193.6816 0002245  36.4944 323.6201 15.08858244 52443,6917.825,95.436,541.243,538.137,0.0
49750.0,STARLINK-3236,PAYLOAD,2022-11-13 03:15:40,15.08864051,0.0002208,53.2143,192.4921,36.5626,323.5516,0.00044354,6.782e-05,0.0,0 STARLINK-3236,1 49750U 21115AC  22317.13588116  .00006782  00000-0  44354-3 0  9999,2 49750  53.2143 192.4921 0002208  36.5626 323.5516 15.08864051 52485,6917.807,95.436,541.1990000000002,538.144,0.0
49750.0,STARLINK-3236,PAYLOAD,2022-11-13 19:09:31,15.08845254,0.0001988,53.2145,189.5183,40.452,319.6620000000001,0.00020572,2.988e-05,0.0,0 STARLINK-3236,1 49750U 21115AC  22317.79828465  .00002988  00000-0  20572-3 0  9995,2 49750  53.2145 189.5183 0001988  40.4520 319.6620 15.08845254 53695,6917.864000000001,95.437,541.105,538.354,0.0
49750.0,STARLINK-3236,PAYLOAD,2022-11-13 23:55:41,15.08834293,0.0002202,53.2146,188.6264,32.0121,328.1005,5.095600000000001e-05,5.23e-06,0.0,0 STARLINK-3236,1 49750U 21115AC  22317.99700788  .00000523  00000-0  50956-4 0  9997,2 49750  53.2146 188.6264 0002202  32.0121 328.1005 15.08834293 53727,6917.898,95.438,541.286,538.24,0.0
49750.0,STARLINK-3236,PAYLOAD,2022-11-14 15:49:33,15.08840304,0.0002183,53.2146,185.6529,31.7973,328.315,0.00055467,8.551e-05,0.0,0 STARLINK-3236,1 49750U 21115AC  22318.65941088  .00008551  00000-0  55467-3 0  9991,2 49750  53.2146 185.6529 0002183  31.7973 328.3150 15.08840304 52718,6917.879,95.438,541.255,538.234,0.0
49750.0,STARLINK-3236,PAYLOAD,2022-11-15 14:04:57,15.08830203,0.0002287,53.2144,181.4885,34.954,325.1602,8.3128e-05,1.035e-05,0.0,0 STARLINK-3236,1 49750U 21115AC  22319.58677716  .00001035  00000-0  83128-4 0  9994,2 49750  53.2144 181.4885 0002287  34.9540 325.1602 15.08830203 52854,6917.91,95.438,541.357,538.193,0.0
49750.0,STARLINK-3236,PAYLOAD,2022-11-15 20:26:30,15.08836087,0.0002332,53.2148,180.3001,38.1435,321.9722,0.00016442,2.329e-05,0.0,0 STARLINK-3236,1 49750U 21115AC  22319.85173635  .00002329  00000-0  16442-3 0  9996,2 49750  53.2148 180.3001 0002332  38.1435 321.9722 15.08836087 52893,6917.892,95.438,541.371,538.144,0.0
49750.0,STARLINK-3236,PAYLOAD,2022-11-16 01:12:39,15.0883818,0.0002315,53.2146,179.4079,37.6895,322.4259,0.00018304,2.626e-05,0.0,0 STARLINK-3236,1 49750U 21115AC  22320.05045570  .00002626  00000-0  18304-3 0  9995,2 49750  53.2146 179.4079 0002315  37.6895 322.4259 15.08838180 54035,6917.886,95.438,541.352,538.149,0.0
49750.0,STARLINK-3236,PAYLOAD,2022-11-16 18:41:54,15.08837058,0.0002377,53.2149,176.1371,39.9696,320.1471,7.0014e-05,8.26e-06,0.0,0 STARLINK-3236,1 49750U 21115AC  22320.77909834  .00000826  00000-0  70014-4 0  9993,2 49750  53.2149 176.1371 0002377  39.9696 320.1471 15.08837058 53032,6917.889,95.438,541.399,538.11,0.0
49750.0,STARLINK-3236,PAYLOAD,2022-11-17 01:03:26,15.0883469,0.0002421,53.215,174.9475,42.1787,317.9391,-0.00013152,-2.381e-05,0.0,0 STARLINK-3236,1 49750U 21115AC  22321.04406054 -.00002381  00000-0 -13152-3 0  9999,2 49750  53.2150 174.9475 0002421  42.1787 317.9391 15.08834690 54183,6917.897,95.438,541.436,538.087,0.0
49750.0,STARLINK-3236,PAYLOAD,2022-11-17 02:38:50,15.08831969,0.0002378,53.2148,174.6501,38.7878,321.3284,-1.3913e-05,-5.1e-06,0.0,0 STARLINK-3236,1 49750U 21115AC  22321.11030296 -.00000510  00000-0 -13913-4 0  9996,2 49750  53.2148 174.6501 0002378  38.7878 321.3284 15.08831969 53084,6917.905,95.438,541.415,538.125,0.0
49750.0,STARLINK-3236,PAYLOAD,2022-11-17 20:08:04,15.08835057,0.0002328,53.2147,171.3792,40.2611,319.8553,8.750299999999999e-05,1.104e-05,0.0,0 STARLINK-3236,1 49750U 21115AC  22321.83894510  .00001104  00000-0  87503-4 0  9996,2 49750  53.2147 171.3792 0002328  40.2611 319.8553 15.08835057 53192,6917.895,95.438,541.371,538.15,0.0
49750.0,STARLINK-3236,PAYLOAD,2022-11-18 13:37:19,15.08842323,0.0002299,53.2154,168.1076,41.155,318.9615,0.00012077,1.634e-05,0.0,0 STARLINK-3236,1 49750U 21115AC  22322.56758402  .00001634  00000-0  12077-3 0  9997,2 49750  53.2154 168.1076 0002299  41.1550 318.9615 15.08842323 54417,6917.873000000001,95.437,541.3290000000002,538.148,0.0
49750.0,STARLINK-3236,PAYLOAD,2022-11-18 19:58:51,15.08841706,0.0002395,53.2148,166.9185,40.9416,319.1755,0.0002461,3.631e-05,0.0,0 STARLINK-3236,1 49750U 21115AC  22322.83254492  .00003631  00000-0  24610-3 0  9992,2 49750  53.2148 166.9185 0002395  40.9416 319.1755 15.08841706 53345,6917.875,95.437,541.3969999999998,538.0830000000002,0.0
49750.0,STARLINK-3236,PAYLOAD,2022-11-19 02:20:24,15.088467199999998,0.0002434,53.2148,165.7292,41.4439,318.6737,0.00030591,4.585e-05,0.0,0 STARLINK-3236,1 49750U 21115AC  22323.09750364  .00004585  00000-0  30591-3 0  9994,2 49750  53.2148 165.7292 0002434  41.4439 318.6737 15.08846720 53385,6917.86,95.437,541.409,538.0409999999998,0.0
49750.0,STARLINK-3236,PAYLOAD,2022-11-19 19:49:38,15.08855731,0.0002496,53.2145,162.458,43.22,316.8987,0.00030201,4.524e-05,0.0,0 STARLINK-3236,1 49750U 21115AC  22323.82613586  .00004524  00000-0  30201-3 0  9990,2 49750  53.2145 162.4580 0002496  43.2200 316.8987 15.08855731 53491,6917.831999999999,95.437,541.424,537.971,0.0
49750.0,STARLINK-3236,PAYLOAD,2022-11-20 00:35:47,15.0885305,0.0003307,53.2158,161.5653,41.1206,319.0035,0.00033015,4.972e-05,0.0,0 STARLINK-3236,1 49750U 21115AC  22324.02485639  .00004972  00000-0  33015-3 0  9992,2 49750  53.2158 161.5653 0003307  41.1206 319.0035 15.08853050 54639,6917.840999999999,95.437,541.993,537.418,0.0
49750.0,STARLINK-3236,PAYLOAD,2022-11-20 13:18:53,15.08842489,0.0004455,53.2145,159.1872,22.3752,337.7433,2.2953e-05,7.6e-07,0.0,0 STARLINK-3236,1 49750U 21115AC  22324.55478028  .00000076  00000-0  22953-4 0  9995,2 49750  53.2145 159.1872 0004455  22.3752 337.7433 15.08842489 54715,6917.873000000001,95.437,542.82,536.656,0.0
49750.0,STARLINK-3236,PAYLOAD,2022-11-20 19:40:25,15.08842629,0.0002447,53.2147,157.9974,44.2178,315.901,-3.768e-05,-8.88e-06,0.0,0 STARLINK-3236,1 49750U 21115AC  22324.81973512 -.00000888  00000-0 -37680-4 0  9998,2 49750  53.2147 157.9974 0002447  44.2178 315.9010 15.08842629 53646,6917.871999999999,95.437,541.43,538.045,0.0
49750.0,STARLINK-3236,PAYLOAD,2022-11-21 13:09:41,15.08800162,0.0002346,53.2157,154.726,53.2643,306.8564,0.00070013,0.0001085999999999,0.0,0 STARLINK-3236,1 49750U 21115AC  22325.54839623  .00010860  00000-0  70013-3 0  9998,2 49750  53.2157 154.7260 0002346  53.2643 306.8564 15.08800162 53756,6918.002,95.44,541.49,538.244,0.0
49750.0,STARLINK-3236,PAYLOAD,2022-11-21 16:20:25,15.08851594,0.0002481,53.2156,154.1313,45.3117,314.8077,-8.3039e-05,-1.6100000000000002e-05,0.0,0 STARLINK-3236,1 49750U 21115AC  22325.68085173 -.00001610  00000-0 -83039-4 0  9994,2 49750  53.2156 154.1313 0002481  45.3117 314.8077 15.08851594 54884,6917.845,95.437,541.4259999999998,537.994,0.0
49750.0,STARLINK-3236,PAYLOAD,2022-11-21 21:06:34,15.08851775,0.0002479,53.2157,153.2391,46.3677,313.752,-8.524e-05,-1.645e-05,0.0,0 STARLINK-3236,1 49750U 21115AC  22325.87957002 -.00001645  00000-0 -85240-4 0  9998,2 49750  53.2157 153.2391 0002479  46.3677 313.7520 15.08851775 53803,6917.844,95.437,541.424,537.994,0.0
49750.0,STARLINK-3236,PAYLOAD,2022-11-22 05:03:30,15.08850015,0.0002498,53.2157,151.7522,46.1494,313.9704,-8.479e-05,-1.638e-05,0.0,0 STARLINK-3236,1 49750U 21115AC  22326.21076885 -.00001638  00000-0 -84790-4 0  9999,2 49750  53.2157 151.7522 0002498  46.1494 313.9704 15.08850015 53855,6917.85,95.437,541.443,537.987,0.0
49750.0,STARLINK-3236,PAYLOAD,2022-11-22 17:46:36,15.08830604,0.0002426,53.2157,149.3731,45.1441,314.9748,4.8633e-05,4.86e-06,0.0,0 STARLINK-3236,1 49750U 21115AC  22326.74069738  .00000486  00000-0  48633-4 0  9990,2 49750  53.2157 149.3731 0002426  45.1441 314.9748 15.08830604 55046,6917.909000000002,95.438,541.452,538.096,0.0
49750.0,STARLINK-3236,PAYLOAD,2022-11-22 19:21:59,15.08826868,0.0002436,53.2157,149.0756,45.3449,314.7741,1.3872e-05,-6.8e-07,0.0,0 STARLINK-3236,1 49750U 21115AC  22326.80694067 -.00000068  00000-0  13872-4 0  9990,2 49750  53.2157 149.0756 0002436  45.3449 314.7741 15.08826868 53946,6917.920999999999,95.438,541.471,538.1,0.0
49750.0,STARLINK-3236,PAYLOAD,2022-11-22 22:32:46,15.08824401,0.0002438,53.2157,148.4811,44.9869,315.132,-8.813400000000001e-06,-4.29e-06,0.0,0 STARLINK-3236,1 49750U 21115AC  22326.93942388 -.00000429  00000-0 -88134-5 0  9992,2 49750  53.2157 148.4811 0002438  44.9869 315.1320 15.08824401 55079,6917.928000000001,95.439,541.48,538.106,0.0
49750.0,STARLINK-3236,PAYLOAD,2022-11-23 12:51:14,15.08827733,0.0002443,53.2157,145.8048,45.6571,314.4621,-2.4912e-06,-3.28e-06,0.0,0 STARLINK-3236,1 49750U 21115AC  22327.53558628 -.00000328  00000-0 -24912-5 0  9991,2 49750  53.2157 145.8048 0002443  45.6571 314.4621 15.08827733 54050,6917.918000000002,95.438,541.4730000000002,538.0930000000002,0.0
